LEMUR-2-ROUNDTRIPPER    
1 62711U 25009DG  26179.60457442  .00007623  00000+0  55624-3 0  9992
2 62711  97.7246 262.2684 0005360 104.2157 255.9664 15.03970813 79345
LEMUR-2-MYNAMEISJEFF    
1 62712U 25009DH  26179.46990954  .00007328  00000+0  53509-3 0  9999
2 62712  97.7288 262.5213 0003951 131.4979 228.6586 15.03963878 79322
LEMUR-2-LEIA-PHILIP     
1 63246U 25052AN  26179.63079940  .00001410  00000+0  12639-3 0  9997
2 63246  97.6817  71.3885 0003940 170.6124 189.5172 14.97341958 70382
LEMUR-2-LIA-MARTIN      
1 63248U 25052AQ  26179.63195085  .00004266  00000+0  36723-3 0  9990
2 63248  97.6873  71.8815 0004105 134.5979 225.5579 14.97887928 70390
LEMUR-2-DELOITTE-1      
1 63259U 25052BB  26179.60984404  .00002745  00000+0  23936-3 0  9992
2 63259  97.6917  72.1909 0002912  73.7017 286.4526 14.97680802 70402
LEMUR-2-EMERSONROSE     
1 63261U 25052BD  26179.64055640  .00003850  00000+0  32126-3 0  9999
2 63261  97.6877  72.7995 0002219  78.6941 281.4532 14.99159432 70450
LEMUR-2-MARACHE-FRAN    
1 63262U 25052BE  26179.27450199  .00004134  00000+0  33543-3 0  9997
2 63262  97.6917  72.7798 0004483 335.8816  24.2197 15.00195310 70426
LEMUR-2-THEFALCONER     
1 63264U 25052BG  26179.57110649  .00003427  00000+0  29930-3 0  9994
2 63264  97.6846  71.7595 0001378  19.3131 340.8143 14.97456211 70396
LEMUR-2-UNTITLED-SC     
1 63351U 25061A   26179.46022311  .00003106  00000+0  17641-3 0  9997
2 63351  97.5638 154.7401 0017439 221.9468 138.0428 15.13548207 69294
LEMUR-2-ESPERANZA       
1 63352U 25061B   26179.43667615  .00002922  00000+0  16578-3 0  9990
2 63352  97.5641 154.8128 0017083 221.2610 138.7331 15.13638280 69294
LEMUR-2-KREMPEL-BRO2    
1 63353U 25061C   26179.46040350  .00003171  00000+0  17735-3 0  9998
2 63353  97.5691 155.3842 0018173 213.2902 146.7188 15.14078428 69310
LEMUR-2-THERMORAPTOR    
1 63354U 25061D   26179.50796072  .00002866  00000+0  16032-3 0  9992
2 63354  97.5694 155.5091 0017946 211.9421 148.0724 15.14158189 69325
LEMUR-2-NEUROSPICY      
1 63355U 25061E   26179.41269009  .00003880  00000+0  21517-3 0  9999
2 63355  97.5622 155.0319 0015710 215.7049 144.3134 15.14274992 69314
LEMUR-2-TILLINFINITY    
1 63356U 25061F   26179.44362327  .00003004  00000+0  16461-3 0  9990
2 63356  97.5607 155.3612 0017257 203.1161 156.9297 15.14859705 69344
LEMUR-2-KREMPEL-BRO1    
1 63357U 25061G   26179.48460237  .00003768  00000+0  20661-3 0  9998
2 63357  97.5609 155.3148 0017897 204.6671 155.3707 15.14665933 69340
LEMUR-2-LANGER2SPACE    
1 63358U 25061H   26179.44728738  .00002954  00000+0  16431-3 0  9994
2 63358  97.5613 155.0872 0015615 213.4944 146.5302 15.14361636 69328
LEMUR-2-BALTO           
1 63395U 25052BH  26179.25922016  .00005515  00000+0  44561-3 0  9990
2 63395  97.6925  72.7402 0006463  28.1069 332.0502 15.00205833 70428
LEMUR-2-KRISH           
1 64561U 25135AK  26179.57686379  .00004494  00000+0  40267-3 0  9996
2 64561  97.7749 294.3749 0001107 105.5808 254.5535 14.96303191 55625
LEMUR-2-HUBBLE-4        
1 64565U 25135AP  26179.59446549  .00001850  00000+0  18048-3 0  9990
2 64565  97.7717 293.3637 0001443 221.7280 138.3829 14.93644251 55578
LEMUR-2-SEJONG-2        
1 64586U 25135BL  26179.60316627  .00004947  00000+0  43723-3 0  9996
2 64586  97.7703 294.5456 0002721 293.9065  66.1871 14.96788816 55653
LEMUR-2-HUBBLE-5        
1 64840U 25135BT  26179.27431751  .00001799  00000+0  17336-3 0  9991
2 64840  97.7727 293.6985 0004229 311.1004  48.9850 14.94168899 55566
LEMUR-2-KARENDARRELL    
1 64841U 25135BU  26179.59058807  .00007736  00000+0  62139-3 0  9992
2 64841  97.7690 295.7796 0010725 159.6068 200.5585 15.00275461 55723
LEMUR-2-LUCILLE-ROSE    
1 65403U 25135BV  26179.56404469  .00006504  00000+0  52286-3 0  9997
2 65403  97.7742 295.7834 0012676 241.3645 118.6304 15.00291303 50340
LEMUR-2-AFFIE-WAUWIE    
1 66295U 25248C   26179.37086131  .00022418  00000+0  82305-3 0  9990
2 66295  45.3941  54.3798 0007838 160.1118 200.0078 15.27614194 36305
LEMUR-2-DEANANDMAEVE    
1 66678U 25276N   26179.44169621  .00005960  00000+0  28089-3 0  9992
2 66678  97.4215 252.7307 0004653 332.3729  27.7259 15.19865964 32120
LEMUR-2-STAS-GORBUK     
1 66686U 25276W   26179.45887170  .00005120  00000+0  24439-3 0  9991
2 66686  97.4250 252.8016 0003926 332.6386  27.4641 15.19495151 32129
LEMUR-2-TEODOR          
1 66768U 25276DG  26179.16716655  .00006065  00000+0  27524-3 0  9996
2 66768  97.4154 252.7649 0002316 105.6124 254.5368 15.21166706 32116
LEMUR-2-LAILA           
1 66776U 25276DQ  26179.46833847  .00005734  00000+0  25866-3 0  9990
2 66776  97.4179 253.1896 0002739 119.9936 240.1572 15.21392872 32167
LEMUR-2-CELIJO-SB-PK    
1 66781U 25276DW  26179.44342517  .00005825  00000+0  47127-3 0  9998
2 66781  97.5230 249.8508 0008034 105.5535 254.6577 15.00107314 24319
