OBJECT_NAME,OBJECT_ID,EPOCH,MEAN_MOTION,ECCENTRICITY,INCLINATION,RA_OF_ASC_NODE,ARG_OF_PERICENTER,MEAN_ANOMALY,EPHEMERIS_TYPE,CLASSIFICATION_TYPE,NORAD_CAT_ID,ELEMENT_SET_NO,REV_AT_EPOCH,BSTAR,MEAN_MOTION_DOT,MEAN_MOTION_DDOT
LEMUR-2-ROUNDTRIPPER,2025-009DG,2026-06-28T14:30:35.229888,15.03970813,.00053601,97.7246,262.2684,104.2157,255.9664,0,U,62711,999,7934,.55623586E-3,.7623E-4,0
LEMUR-2-MYNAMEISJEFF,2025-009DH,2026-06-28T11:16:40.184256,15.03963878,.00039515,97.7288,262.5213,131.4979,228.6586,0,U,62712,999,7932,.53509109E-3,.7328E-4,0
LEMUR-2-LEIA-PHILIP,2025-052AN,2026-06-28T15:08:21.068160,14.97341958,.00039403,97.6817,71.3885,170.6124,189.5172,0,U,63246,999,7038,.12639242E-3,.141E-4,0
LEMUR-2-LIA-MARTIN,2025-052AQ,2026-06-28T15:10:00.553440,14.97887928,.00041052,97.6873,71.8815,134.5979,225.5579,0,U,63248,999,7039,.36722982E-3,.4266E-4,0
LEMUR-2-DELOITTE-1,2025-052BB,2026-06-28T14:38:10.525056,14.97680802,.00029123,97.6917,72.1909,73.7017,286.4526,0,U,63259,999,7040,.23936027E-3,.2745E-4,0
LEMUR-2-EMERSONROSE,2025-052BD,2026-06-28T15:22:24.072960,14.99159432,.00022193,97.6877,72.7995,78.6941,281.4532,0,U,63261,999,7045,.32126026E-3,.385E-4,0
LEMUR-2-MARACHE-FRAN,2025-052BE,2026-06-28T06:35:16.971936,15.00195310,.00044833,97.6917,72.7798,335.8816,24.2197,0,U,63262,999,7042,.33542599E-3,.4134E-4,0
LEMUR-2-THEFALCONER,2025-052BG,2026-06-28T13:42:23.600736,14.97456211,.00013782,97.6846,71.7595,19.3131,340.8143,0,U,63264,999,7039,.29930359E-3,.3427E-4,0
LEMUR-2-UNTITLED-SC,2025-061A,2026-06-28T11:02:43.276704,15.13548207,.00174394,97.5638,154.7401,221.9468,138.0428,0,U,63351,999,6929,.17641369E-3,.3106E-4,0
LEMUR-2-ESPERANZA,2025-061B,2026-06-28T10:28:48.819360,15.13638280,.00170839,97.5641,154.8128,221.2610,138.7331,0,U,63352,999,6929,.16578438E-3,.2922E-4,0
LEMUR-2-KREMPEL-BRO2,2025-061C,2026-06-28T11:02:58.862400,15.14078428,.00181733,97.5691,155.3842,213.2902,146.7188,0,U,63353,999,6931,.17735441E-3,.3171E-4,0
LEMUR-2-THERMORAPTOR,2025-061D,2026-06-28T12:11:27.806208,15.14158189,.00179461,97.5694,155.5091,211.9421,148.0724,0,U,63354,999,6932,.16031732E-3,.2866E-4,0
LEMUR-2-NEUROSPICY,2025-061E,2026-06-28T09:54:16.423776,15.14274992,.00157105,97.5622,155.0319,215.7049,144.3134,0,U,63355,999,6931,.21517138E-3,.388E-4,0
LEMUR-2-TILLINFINITY,2025-061F,2026-06-28T10:38:49.050528,15.14859705,.00172577,97.5607,155.3612,203.1161,156.9297,0,U,63356,999,6934,.16460522E-3,.3004E-4,0
LEMUR-2-KREMPEL-BRO1,2025-061G,2026-06-28T11:37:49.644768,15.14665933,.00178973,97.5609,155.3148,204.6671,155.3707,0,U,63357,999,6934,.20661068E-3,.3768E-4,0
LEMUR-2-LANGER2SPACE,2025-061H,2026-06-28T10:44:05.629632,15.14361636,.00156158,97.5613,155.0872,213.4944,146.5302,0,U,63358,999,6932,.16431267E-3,.2954E-4,0
LEMUR-2-BALTO,2025-052BH,2026-06-28T06:13:16.621824,15.00205833,.00064637,97.6925,72.7402,28.1069,332.0502,0,U,63395,999,7042,.44561413E-3,.5515E-4,0
LEMUR-2-KRISH,2025-135AK,2026-06-28T13:50:41.031456,14.96303191,.00011075,97.7749,294.3749,105.5808,254.5535,0,U,64561,999,5562,.40267257E-3,.4494E-4,0
LEMUR-2-HUBBLE-4,2025-135AP,2026-06-28T14:16:01.818336,14.93644251,.00014431,97.7717,293.3637,221.7280,138.3829,0,U,64565,999,5557,.18047661E-3,.185E-4,0
LEMUR-2-SEJONG-2,2025-135BL,2026-06-28T14:28:33.565728,14.96788816,.0002721,97.7703,294.5456,293.9065,66.1871,0,U,64586,999,5565,.43723488E-3,.4947E-4,0
LEMUR-2-HUBBLE-5,2025-135BT,2026-06-28T06:35:01.032864,14.94168899,.00042294,97.7727,293.6985,311.1004,48.9850,0,U,64840,999,5556,.17335753E-3,.1799E-4,0
LEMUR-2-KARENDARRELL,2025-135BU,2026-06-28T14:10:26.809248,15.00275461,.00107259,97.7690,295.7796,159.6068,200.5585,0,U,64841,999,5572,.6213908E-3,.7736E-4,0
LEMUR-2-LUCILLE-ROSE,2025-135BV,2026-06-28T13:32:13.461216,15.00291303,.00126767,97.7742,295.7834,241.3645,118.6304,0,U,65403,999,5034,.52286432E-3,.6504E-4,0
LEMUR-2-AFFIE-WAUWIE,2025-248C,2026-06-28T08:54:02.417184,15.27614194,.0007838,45.3941,54.3798,160.1118,200.0078,0,U,66295,999,3630,.82305476E-3,.22418E-3,0
LEMUR-2-DEANANDMAEVE,2025-276N,2026-06-28T10:36:02.552544,15.19865964,.00046534,97.4215,252.7307,332.3729,27.7259,0,U,66678,999,3212,.28088793E-3,.596E-4,0
LEMUR-2-STAS-GORBUK,2025-276W,2026-06-28T11:00:46.514880,15.19495151,.00039269,97.4250,252.8016,332.6386,27.4641,0,U,66686,999,3212,.24438554E-3,.512E-4,0
LEMUR-2-TEODOR,2025-276DG,2026-06-28T04:00:43.189920,15.21166706,.00023161,97.4154,252.7649,105.6124,254.5368,0,U,66768,999,3211,.27524423E-3,.6065E-4,0
LEMUR-2-LAILA,2025-276DQ,2026-06-28T11:14:24.443808,15.21392872,.00027394,97.4179,253.1896,119.9936,240.1572,0,U,66776,999,3216,.25866471E-3,.5734E-4,0
LEMUR-2-CELIJO-SB-PK,2025-276DW,2026-06-28T10:38:31.934688,15.00107314,.00080349,97.5230,249.8508,105.5535,254.6577,0,U,66781,999,2431,.47127157E-3,.5825E-4,0
